IXPE                    
1 49954U 21121A   24139.58335648  .00010346  00000+0  78651-3 0  9992
2 49954   0.2292 253.3129 0009519 197.4059 307.9500 14.97858391  5893
